start=new Date('2022-11-19T00:00:00.000Z').valueOf();
sats=[{"RA_OF_ASC_NODE":"230.7516","REV_AT_EPOCH":"9583","CENTER_NAME":"EARTH","SEMIMAJOR_AXIS":"6925.346","ECCENTRICITY":"0.00021920","NORAD_CAT_ID":"47780","OBJECT_NAME":"STARLINK-2213","LAUNCH_DATE":"2021-03-04","TLE_LINE1":"1 47780U 21017BL  22322.53356535  .00000663  00000-0  63431-4 0  9999","COUNTRY_CODE":"US","MEAN_ELEMENT_THEORY":"SGP4","MEAN_MOTION_DDOT":"0.0000000000000","OBJECT_TYPE":"PAYLOAD","GP_ID":"218165714","EPOCH":"2022-11-18T12:48:20.046240","DECAY_DATE":null,"MEAN_MOTION":"15.06400725","ARG_OF_PERICENTER":"44.6265","TLE_LINE2":"2 47780  53.0555 230.7516 0002192  44.6265 315.4901 15.06400725 95834","TIME_SYSTEM":"UTC","INCLINATION":"53.0555","REF_FRAME":"TEME","PERIAPSIS":"545.693","MEAN_ANOMALY":"315.4901","OBJECT_ID":"2021-017BL","SITE":"AFETR","APOAPSIS":"548.729","PERIOD":"95.592","ELEMENT_SET_NO":"999","CLASSIFICATION_TYPE":"U","FILE":"3662753","MEAN_MOTION_DOT":"0.00000663","EPHEMERIS_TYPE":"0","BSTAR":"0.00006343100000","RCS_SIZE":"LARGE"},{"LAUNCH_DATE":"2021-03-04","COUNTRY_CODE":"US","TLE_LINE1":"1 47781U 21017BM  22322.16866420  .00002286  00000-0  17232-3 0  9998","MEAN_ELEMENT_THEORY":"SGP4","RA_OF_ASC_NODE":"232.3882","REV_AT_EPOCH":"9573","CENTER_NAME":"EARTH","NORAD_CAT_ID":"47781","SEMIMAJOR_AXIS":"6925.348","ECCENTRICITY":"0.00019240","OBJECT_NAME":"STARLINK-2223","EPOCH":"2022-11-18T04:02:52.586880","OBJECT_TYPE":"PAYLOAD","GP_ID":"218136024","DECAY_DATE":null,"MEAN_MOTION":"15.06400277","MEAN_MOTION_DDOT":"0.0000000000000","REF_FRAME":"TEME","MEAN_ANOMALY":"297.5139","PERIAPSIS":"545.880","OBJECT_ID":"2021-017BM","ARG_OF_PERICENTER":"62.6045","TLE_LINE2":"2 47781  53.0547 232.3882 0001924  62.6045 297.5139 15.06400277 95732","INCLINATION":"53.0547","TIME_SYSTEM":"UTC","EPHEMERIS_TYPE":"0","MEAN_MOTION_DOT":"0.00002286","RCS_SIZE":"LARGE","BSTAR":"0.00017232000000","SITE":"AFETR","APOAPSIS":"548.545","ELEMENT_SET_NO":"999","CLASSIFICATION_TYPE":"U","PERIOD":"95.592","FILE":"3662515"},{"MEAN_MOTION":"15.06391782","DECAY_DATE":null,"OBJECT_TYPE":"PAYLOAD","GP_ID":"218165213","EPOCH":"2022-11-18T14:02:39.384384","MEAN_MOTION_DDOT":"0.0000000000000","MEAN_ELEMENT_THEORY":"SGP4","TLE_LINE1":"1 47787U 21018A   22322.58517806  .00001519  00000-0  12089-3 0  9995","COUNTRY_CODE":"US","LAUNCH_DATE":"2021-03-11","SEMIMAJOR_AXIS":"6925.374","ECCENTRICITY":"0.00017960","NORAD_CAT_ID":"47787","OBJECT_NAME":"STARLINK-2257","CENTER_NAME":"EARTH","RA_OF_ASC_NODE":"270.5213","REV_AT_EPOCH":"9465","BSTAR":"0.00012089000000","RCS_SIZE":"LARGE","MEAN_MOTION_DOT":"0.00001519","EPHEMERIS_TYPE":"0","FILE":"3662753","PERIOD":"95.593","CLASSIFICATION_TYPE":"U","ELEMENT_SET_NO":"999","APOAPSIS":"548.483","SITE":"AFETR","OBJECT_ID":"2021-018A","PERIAPSIS":"545.995","MEAN_ANOMALY":"292.9778","REF_FRAME":"TEME","TIME_SYSTEM":"UTC","INCLINATION":"53.0559","TLE_LINE2":"2 47787  53.0559 270.5213 0001796  67.1401 292.9778 15.06391782 94654","ARG_OF_PERICENTER":"67.1401"},{"TLE_LINE2":"2 47788  53.0550 247.2669 0002064  39.7267 320.3873 15.06404507 94962","TIME_SYSTEM":"UTC","INCLINATION":"53.0550","ARG_OF_PERICENTER":"39.7267","OBJECT_ID":"2021-018B","REF_FRAME":"TEME","PERIAPSIS":"545.770","MEAN_ANOMALY":"320.3873","PERIOD":"95.592","CLASSIFICATION_TYPE":"U","ELEMENT_SET_NO":"999","FILE":"3662515","SITE":"AFETR","APOAPSIS":"548.629","BSTAR":"0.00014633000000","RCS_SIZE":"LARGE","MEAN_MOTION_DOT":"0.00001899","EPHEMERIS_TYPE":"0","SEMIMAJOR_AXIS":"6925.335","NORAD_CAT_ID":"47788","OBJECT_NAME":"STARLINK-2314","ECCENTRICITY":"0.00020640","RA_OF_ASC_NODE":"247.2669","REV_AT_EPOCH":"9496","CENTER_NAME":"EARTH","TLE_LINE1":"1 47788U 21018B   22322.19860466  .00001899  00000-0  14633-3 0  9994","COUNTRY_CODE":"US","MEAN_ELEMENT_THEORY":"SGP4","LAUNCH_DATE":"2021-03-11","MEAN_MOTION_DDOT":"0.0000000000000","DECAY_DATE":null,"MEAN_MOTION":"15.06404507","OBJECT_TYPE":"PAYLOAD","GP_ID":"218135022","EPOCH":"2022-11-18T04:45:59.442624"},{"ARG_OF_PERICENTER":"60.9245","INCLINATION":"53.0549","TIME_SYSTEM":"UTC","TLE_LINE2":"2 47789  53.0549 250.8516 0001589  60.9245 299.1903 15.06401240 94930","MEAN_ANOMALY":"299.1903","PERIAPSIS":"546.109","REF_FRAME":"TEME","OBJECT_ID":"2021-018C","APOAPSIS":"548.310","SITE":"AFETR","FILE":"3662515","CLASSIFICATION_TYPE":"U","ELEMENT_SET_NO":"999","PERIOD":"95.592","EPHEMERIS_TYPE":"0","MEAN_MOTION_DOT":"0.00001545","BSTAR":"0.00012259000000","RCS_SIZE":"LARGE","CENTER_NAME":"EARTH","RA_OF_ASC_NODE":"250.8516","REV_AT_EPOCH":"9493","SEMIMAJOR_AXIS":"6925.345","ECCENTRICITY":"0.00015890","NORAD_CAT_ID":"47789","OBJECT_NAME":"STARLINK-2315","LAUNCH_DATE":"2021-03-11","MEAN_ELEMENT_THEORY":"SGP4","COUNTRY_CODE":"US","TLE_LINE1":"1 47789U 21018C   22322.51329126  .00001545  00000-0  12259-3 0  9994","MEAN_MOTION_DDOT":"0.0000000000000","EPOCH":"2022-11-18T12:19:08.364864","GP_ID":"218135774","OBJECT_TYPE":"PAYLOAD","MEAN_MOTION":"15.06401240","DECAY_DATE":null},{"MEAN_MOTION_DDOT":"0.0000000000000","EPOCH":"2022-11-18T13:18:50.791392","GP_ID":"218165954","OBJECT_TYPE":"PAYLOAD","MEAN_MOTION":"15.06447975","DECAY_DATE":null,"CENTER_NAME":"EARTH","REV_AT_EPOCH":"9508","RA_OF_ASC_NODE":"240.6635","OBJECT_NAME":"STARLINK-2319","SEMIMAJOR_AXIS":"6925.202","NORAD_CAT_ID":"47790","ECCENTRICITY":"0.00017890","LAUNCH_DATE":"2021-03-11","MEAN_ELEMENT_THEORY":"SGP4","COUNTRY_CODE":"US","TLE_LINE1":"1 47790U 21018D   22322.55475453 -.00009317  00000-0 -60658-3 0  9998","APOAPSIS":"548.305","SITE":"AFETR","FILE":"3662753","CLASSIFICATION_TYPE":"U","ELEMENT_SET_NO":"999","PERIOD":"95.589","EPHEMERIS_TYPE":"0","MEAN_MOTION_DOT":"-0.00009317","BSTAR":"-0.00060658000000","RCS_SIZE":"LARGE","ARG_OF_PERICENTER":"42.1756","INCLINATION":"53.0547","TIME_SYSTEM":"UTC","TLE_LINE2":"2 47790  53.0547 240.6635 0001789  42.1756 317.9371 15.06447975 95080","MEAN_ANOMALY":"317.9371","PERIAPSIS":"545.828","REF_FRAME":"TEME","OBJECT_ID":"2021-018D"},{"CENTER_NAME":"EARTH","RA_OF_ASC_NODE":"270.2618","REV_AT_EPOCH":"9467","OBJECT_NAME":"STARLINK-2322","SEMIMAJOR_AXIS":"6925.368","NORAD_CAT_ID":"47791","ECCENTRICITY":"0.00016840","LAUNCH_DATE":"2021-03-11","MEAN_ELEMENT_THEORY":"SGP4","COUNTRY_CODE":"US","TLE_LINE1":"1 47791U 21018E   22322.64047397  .00000062  00000-0  23096-4 0  9993","MEAN_MOTION_DDOT":"0.0000000000000","EPOCH":"2022-11-18T15:22:16.951008","OBJECT_TYPE":"PAYLOAD","GP_ID":"218164713","MEAN_MOTION":"15.06393531","DECAY_DATE":null,"ARG_OF_PERICENTER":"53.0981","INCLINATION":"53.0554","TIME_SYSTEM":"UTC","TLE_LINE2":"2 47791  53.0554 270.2618 0001684  53.0981 307.0162 15.06393531 94674","MEAN_ANOMALY":"307.0162","PERIAPSIS":"546.067","REF_FRAME":"TEME","OBJECT_ID":"2021-018E","APOAPSIS":"548.400","SITE":"AFETR","FILE":"3662753","CLASSIFICATION_TYPE":"U","ELEMENT_SET_NO":"999","PERIOD":"95.593","MEAN_MOTION_DOT":"0.00000062","EPHEMERIS_TYPE":"0","RCS_SIZE":"LARGE","BSTAR":"0.00002309600000"},{"OBJECT_ID":"2021-018F","MEAN_ANOMALY":"315.2020","PERIAPSIS":"545.679","REF_FRAME":"TEME","INCLINATION":"53.0545","TIME_SYSTEM":"UTC","TLE_LINE2":"2 47792  53.0545 250.8223 0002230  44.9149 315.2020 15.06396811 94582","ARG_OF_PERICENTER":"44.9149","BSTAR":"0.00011085000000","RCS_SIZE":"LARGE","MEAN_MOTION_DOT":"0.00001370","EPHEMERIS_TYPE":"0","FILE":"3662587","CLASSIFICATION_TYPE":"U","ELEMENT_SET_NO":"999","PERIOD":"95.592","APOAPSIS":"548.768","SITE":"AFETR","MEAN_ELEMENT_THEORY":"SGP4","COUNTRY_CODE":"US","TLE_LINE1":"1 47792U 21018F   22322.52066899  .00001370  00000-0  11085-3 0  9996","LAUNCH_DATE":"2021-03-11","SEMIMAJOR_AXIS":"6925.358","NORAD_CAT_ID":"47792","ECCENTRICITY":"0.00022300","OBJECT_NAME":"STARLINK-2334","CENTER_NAME":"EARTH","RA_OF_ASC_NODE":"250.8223","REV_AT_EPOCH":"9458","MEAN_MOTION":"15.06396811","DECAY_DATE":null,"EPOCH":"2022-11-18T12:29:45.800736","GP_ID":"218140694","OBJECT_TYPE":"PAYLOAD","MEAN_MOTION_DDOT":"0.0000000000000"},{"SITE":"AFETR","APOAPSIS":"548.521","ELEMENT_SET_NO":"999","CLASSIFICATION_TYPE":"U","PERIOD":"95.592","FILE":"3662515","MEAN_MOTION_DOT":"0.00003925","EPHEMERIS_TYPE":"0","RCS_SIZE":"LARGE","BSTAR":"0.00028222000000","ARG_OF_PERICENTER":"52.7438","TLE_LINE2":"2 47793  53.0532 252.2434 0001915  52.7438 307.3725 15.06406120 94877","INCLINATION":"53.0532","TIME_SYSTEM":"UTC","REF_FRAME":"TEME","MEAN_ANOMALY":"307.3725","PERIAPSIS":"545.869","OBJECT_ID":"2021-018G","MEAN_MOTION_DDOT":"0.0000000000000","EPOCH":"2022-11-18T04:53:17.543328","OBJECT_TYPE":"PAYLOAD","GP_ID":"218135274","DECAY_DATE":null,"MEAN_MOTION":"15.06406120","RA_OF_ASC_NODE":"252.2434","REV_AT_EPOCH":"9487","CENTER_NAME":"EARTH","SEMIMAJOR_AXIS":"6925.330","ECCENTRICITY":"0.00019150","NORAD_CAT_ID":"47793","OBJECT_NAME":"STARLINK-2338","LAUNCH_DATE":"2021-03-11","COUNTRY_CODE":"US","TLE_LINE1":"1 47793U 21018G   22322.20367527  .00003925  00000-0  28222-3 0  9993","MEAN_ELEMENT_THEORY":"SGP4"},{"MEAN_MOTION_DDOT":"0.0000000000000","MEAN_MOTION":"15.06399756","DECAY_DATE":null,"EPOCH":"2022-11-18T12:56:17.901312","OBJECT_TYPE":"PAYLOAD","GP_ID":"218136025","OBJECT_NAME":"STARLINK-2341","SEMIMAJOR_AXIS":"6925.349","NORAD_CAT_ID":"47794","ECCENTRICITY":"0.00019650","CENTER_NAME":"EARTH","REV_AT_EPOCH":"9493","RA_OF_ASC_NODE":"250.7390","MEAN_ELEMENT_THEORY":"SGP4","COUNTRY_CODE":"US","TLE_LINE1":"1 47794U 21018H   22322.53909608  .00001590  00000-0  12564-3 0  9990","LAUNCH_DATE":"2021-03-11","FILE":"3662515","ELEMENT_SET_NO":"999","CLASSIFICATION_TYPE":"U","PERIOD":"95.592","APOAPSIS":"548.575","SITE":"AFETR","BSTAR":"0.00012564000000","RCS_SIZE":"LARGE","MEAN_MOTION_DOT":"0.00001590","EPHEMERIS_TYPE":"0","INCLINATION":"53.0542","TIME_SYSTEM":"UTC","TLE_LINE2":"2 47794  53.0542 250.7390 0001965  47.5546 312.5609 15.06399756 94932","ARG_OF_PERICENTER":"47.5546","OBJECT_ID":"2021-018H","MEAN_ANOMALY":"312.5609","PERIAPSIS":"545.853","REF_FRAME":"TEME"}];
